[{"OBJECT_NAME":"STARLINK-32127","OBJECT_ID":"2024-120M","EPOCH":"2026-03-09T23:16:49.252800","MEAN_MOTION":15.30202857,"ECCENTRICITY":8.279e-5,"INCLINATION":53.1618,"RA_OF_ASC_NODE":318.3007,"ARG_OF_PERICENTER":84.6058,"MEAN_ANOMALY":275.5037,"EPHEMERIS_TYPE":0,"CLASSIFICATION_TYPE":"U","NORAD_CAT_ID":60146,"ELEMENT_SET_NO":999,"REV_AT_EPOCH":9642,"BSTAR":0.00016446914,"MEAN_MOTION_DOT":4.516e-5,"MEAN_MOTION_DDOT":0},{"OBJECT_NAME":"SL-12 DEB","OBJECT_ID":"1985-118R","EPOCH":"2026-03-04T03:47:00.528864","MEAN_MOTION":4.7194367,"ECCENTRICITY":0.54448567,"INCLINATION":65.1297,"RA_OF_ASC_NODE":76.2613,"ARG_OF_PERICENTER":43.7928,"MEAN_ANOMALY":8.4241,"EPHEMERIS_TYPE":0,"CLASSIFICATION_TYPE":"U","NORAD_CAT_ID":23294,"ELEMENT_SET_NO":999,"REV_AT_EPOCH":3486,"BSTAR":0.0073467949,"MEAN_MOTION_DOT":5.268e-5,"MEAN_MOTION_DDOT":0}]
